{
    "CCSDS_OMM_VERS": "3.0",
    "COMMENT": "GENERATED VIA SPACE-TRACK.ORG API",
    "CREATION_DATE": "2025-05-23T14:46:20",
    "ORIGINATOR": "18 SPCS",
    "OBJECT_NAME": "COSMOS 2464 (GLONASS)",
    "OBJECT_ID": "2010-041C",
    "CENTER_NAME": "EARTH",
    "REF_FRAME": "TEME",
    "TIME_SYSTEM": "UTC",
    "MEAN_ELEMENT_THEORY": "SGP4",
    "EPOCH": "2025-05-23T09:19:38.292096",
    "MEAN_MOTION": "2.13098897",
    "ECCENTRICITY": "0.00329540",
    "INCLINATION": "63.9137",
    "RA_OF_ASC_NODE": "203.6124",
    "ARG_OF_PERICENTER": "9.7287",
    "MEAN_ANOMALY": "58.8901",
    "EPHEMERIS_TYPE": "0",
    "CLASSIFICATION_TYPE": "U",
    "NORAD_CAT_ID": "37139",
    "ELEMENT_SET_NO": "999",
    "REV_AT_EPOCH": "11457",
    "BSTAR": "0.00000000000000",
    "MEAN_MOTION_DOT": "0.00000068",
    "MEAN_MOTION_DDOT": "0.0000000000000",
    "SEMIMAJOR_AXIS": "25508.272",
    "PERIOD": "675.743",
    "APOAPSIS": "19214.197",
    "PERIAPSIS": "19046.077",
    "OBJECT_TYPE": "PAYLOAD",
    "RCS_SIZE": "LARGE",
    "COUNTRY_CODE": "CIS",
    "LAUNCH_DATE": "2010-09-02",
    "SITE": "TTMTR",
    "DECAY_DATE": null,
    "FILE": "4736985",
    "GP_ID": "288175431",
    "TLE_LINE0": "0 COSMOS 2464 (GLONASS)",
    "TLE_LINE1": "1 37139U 10041C   25143.38863764  .00000068  00000-0  00000+0 0  9992",
    "TLE_LINE2": "2 37139  63.9137 203.6124 0032954   9.7287  58.8901  2.13098897114574"
}